*******************************************************************************
JPL/HORIZONS               4219 Nakamura (1988 DB)         2023-Sep-04 11:27:58
Rec #:    4219 (+COV) Soln.date: 2023-Aug-23_16:58:23   # obs: 3691 (1978-2023)
 
IAU76/J2000 helio. ecliptic osc. elements (au, days, deg., period=Julian yrs):
 
  EPOCH=  2457964.5 ! 2017-Jul-30.00 (TDB)         Residual RMS= .25764
   EC= .1229254439274423   QR= 2.164097999765376   TP= 2457274.6742745754
   OM= 140.6430298452595   W=  64.63148021366023   IN= 3.086981054312125
   A= 2.467404834380291    MA= 175.4215092842879   ADIST= 2.770711668995205
   PER= 3.87587            N= .2542983             ANGMOM= .026816084
   DAN= 2.30854            DDN= 2.56522            L= 205.2422863
   B= 2.7890581            MOID= 1.16198003        TP= 2015-Sep-09.1742745754
 
Asteroid physical parameters (km, seconds, rotational period in hours):
   GM= n.a.                RAD= 4.9845             ROTPER= 115.492
   H= 13.71                G= .150                 B-V= n.a.
                           ALBEDO= .036            STYP= n.a.

ASTEROID comments: 
1: soln ref.= JPL#50, OCC=0
2: source=ORB
*******************************************************************************


*******************************************************************************
Ephemeris / API_USER Mon Sep  4 11:27:58 2023 Pasadena, USA      / Horizons
*******************************************************************************
Target body name: 4219 Nakamura (1988 DB)         {source: JPL#50}
Center body name: Solar System Barycenter (0)     {source: DE441}
Center-site name: BODY CENTER
*******************************************************************************
Start time      : A.D. 2023-Aug-12 00:00:00.0000 TDB
Stop  time      : A.D. 2023-Aug-13 00:00:00.0000 TDB
Step-size       : 2880 minutes
*******************************************************************************
Center geodetic : 0.0, 0.0, 0.0                   {E-lon(deg),Lat(deg),Alt(km)}
Center cylindric: 0.0, 0.0, 0.0                   {E-lon(deg),Dxy(km),Dz(km)}
Center radii    : (undefined)
Small perturbers: Yes                             {source: SB441-N16}
Output units    : KM-S
Calendar mode   : Mixed Julian/Gregorian
Output type     : GEOMETRIC cartesian states
Output format   : 2 (position and velocity)
Reference frame : Ecliptic of J2000.0
*******************************************************************************
Initial IAU76/J2000 heliocentric ecliptic osculating elements (au, days, deg.):
  EPOCH=  2457964.5 ! 2017-Jul-30.00 (TDB)         Residual RMS= .25764        
   EC= .1229254439274423   QR= 2.164097999765376   TP= 2457274.6742745754      
   OM= 140.6430298452595   W=  64.63148021366023   IN= 3.086981054312125       
  Equivalent ICRF heliocentric cartesian coordinates (au, au/d):
   X= 2.571943408856430E+00  Y= 9.878608637983279E-01  Z= 2.860543070438578E-01
  VX=-3.500050708848850E-03 VY= 8.380498016850115E-03 VZ= 3.353763877164954E-03
Asteroid physical parameters (km, seconds, rotational period in hours):        
   GM= n.a.                RAD= 4.9845             ROTPER= 115.492             
   H= 13.71                G= .150                 B-V= n.a.                   
                           ALBEDO= .036            STYP= n.a.                  
*******************************************************************************
JDTDB
   X     Y     Z
   VX    VY    VZ
*******************************************************************************
$$SOE
2460168.500000000 = A.D. 2023-Aug-12 00:00:00.0000 TDB 
 X =-2.269533765055174E+08 Y =-2.342552396404366E+08 Z = 1.752250590634535E+07
 VX= 1.476833333945175E+01 VY=-1.543294421118916E+01 VZ= 1.375091129334356E-01
$$EOE
*******************************************************************************
 
TIME

  Barycentric Dynamical Time ("TDB" or T_eph) output was requested. This
continuous coordinate time is equivalent to the relativistic proper time
of a clock at rest in a reference frame co-moving with the solar system
barycenter but outside the system's gravity well. It is the independent
variable in the solar system relativistic equations of motion.

  TDB runs at a uniform rate of one SI second per second and is independent
of irregularities in Earth's rotation.
 
CALENDAR SYSTEM

  Mixed calendar mode was active such that calendar dates after AD 1582-Oct-15
(if any) are in the modern Gregorian system. Dates prior to 1582-Oct-5 (if any)
are in the Julian calendar system, which is automatically extended for dates
prior to its adoption on 45-Jan-1 BC.  The Julian calendar is useful for
matching historical dates. The Gregorian calendar more accurately corresponds
to the Earth's orbital motion and seasons. A "Gregorian-only" calendar mode is
available if such physical events are the primary interest.

REFERENCE FRAME AND COORDINATES

  Ecliptic at the standard reference epoch

    Reference epoch: J2000.0
    X-Y plane: adopted Earth orbital plane at the reference epoch
               Note: IAU76 obliquity of 84381.448 arcseconds wrt ICRF X-Y plane
    X-axis   : ICRF
    Z-axis   : perpendicular to the X-Y plane in the directional (+ or -) sense
               of Earth's north pole at the reference epoch.

  Symbol meaning:

    JDTDB    Julian Day Number, Barycentric Dynamical Time
      X      X-component of position vector (km)
      Y      Y-component of position vector (km)
      Z      Z-component of position vector (km)
      VX     X-component of velocity vector (km/sec)                           
      VY     Y-component of velocity vector (km/sec)                           
      VZ     Z-component of velocity vector (km/sec)                           

ABERRATIONS AND CORRECTIONS

 Geometric state vectors have NO corrections or aberrations applied.

Computations by ...

    Solar System Dynamics Group, Horizons On-Line Ephemeris System
    4800 Oak Grove Drive, Jet Propulsion Laboratory
    Pasadena, CA  91109   USA

    General site: https://ssd.jpl.nasa.gov/
    Mailing list: https://ssd.jpl.nasa.gov/email_list.html
    System news : https://ssd.jpl.nasa.gov/horizons/news.html
    User Guide  : https://ssd.jpl.nasa.gov/horizons/manual.html
    Connect     : browser        https://ssd.jpl.nasa.gov/horizons/app.html#/x
                  API            https://ssd-api.jpl.nasa.gov/doc/horizons.html
                  command-line   telnet ssd.jpl.nasa.gov 6775
                  e-mail/batch   https://ssd.jpl.nasa.gov/ftp/ssd/hrzn_batch.txt
                  scripts        https://ssd.jpl.nasa.gov/ftp/ssd/SCRIPTS
    Author      : Jon.D.Giorgini@jpl.nasa.gov
*******************************************************************************
